{"type": "FeatureCollection", "features": [ {"type": "Feature", "properties": {"norad_id": 34570, "name": "COSMOS 2251 DEB", "group": "cosmos-2251-debris", "lat": -28.721804430127367, "lon": 57.579753268192256, "alt_km": 915.5450019006903, "timestamp": "2025-12-06T20:37:56.470120+00:00", "meta": {"OBJECT_NAME": "COSMOS 2251 DEB", "OBJECT_ID": "1993-036VG", "EPOCH": "2025-12-06T03:12:06.499584", "MEAN_MOTION": 13.99803455, "ECCENTRICITY": 0.01902195, "INCLINATION": 73.9579, "RA_OF_ASC_NODE": 229.771, "ARG_OF_PERICENTER": 113.7537, "MEAN_ANOMALY": 35.4941, "EPHEMERIS_TYPE": 0, "CLASSIFICATION_TYPE": "U", "NORAD_CAT_ID": 34570, "ELEMENT_SET_NO": 999, "REV_AT_EPOCH": 85508, "BSTAR": 0.00076088738, "MEAN_MOTION_DOT": 1.281e-05, "MEAN_MOTION_DDOT": 0}, "tle": {"line1": "1 34570U 93036VG  25340.13340856  .00001281  00000+0  76089-3 0  9998", "line2": "2 34570  73.9579 229.7710 0190219 113.7537  35.4941 13.99803455855087"}}, "geometry": {"type": "Point", "coordinates": [57.579753268192256, -28.721804430127367]}}, {"type": "Feature", "properties": {"norad_id": 34571, "name": "COSMOS 2251 DEB", "group": "cosmos-2251-debris", "lat": 69.5613677194227, "lon": -36.722584261949514, "alt_km": 751.2332892077202, "timestamp": "2025-12-06T20:37:56.470131+00:00", "meta": {"OBJECT_NAME": "COSMOS 2251 DEB", "OBJECT_ID": "1993-036VH", "EPOCH": "2025-12-05T20:57:01.253952", "MEAN_MOTION": 14.48652907, "ECCENTRICITY": 0.00669019, "INCLINATION": 74.039, "RA_OF_ASC_NODE": 195.2976, "ARG_OF_PERICENTER": 231.9254, "MEAN_ANOMALY": 127.586, "EPHEMERIS_TYPE": 0, "CLASSIFICATION_TYPE": "U", "NORAD_CAT_ID": 34571, "ELEMENT_SET_NO": 999, "REV_AT_EPOCH": 87194, "BSTAR": 0.0035092807, "MEAN_MOTION_DOT": 0.0001359, "MEAN_MOTION_DDOT": 0}, "tle": {"line1": "1 34571U 93036VH  25339.87293118  .00013590  00000+0  35093-2 0  9991", "line2": "2 34571  74.0390 195.2976 0066901 231.9254 127.5860 14.48652907871946"}}, "geometry": {"type": "Point", "coordinates": [-36.722584261949514, 69.5613677194227]}}, {"type": "Feature", "properties": {"norad_id": 34572, "name": "COSMOS 2251 DEB", "group": "cosmos-2251-debris", "lat": -54.86174808667108, "lon": 102.52628716714334, "alt_km": 740.963441324483, "timestamp": "2025-12-06T20:37:56.470141+00:00", "meta": {"OBJECT_NAME": "COSMOS 2251 DEB", "OBJECT_ID": "1993-036VJ", "EPOCH": "2025-12-06T09:27:00.184032", "MEAN_MOTION": 14.49801114, "ECCENTRICITY": 0.00636006, "INCLINATION": 74.0114, "RA_OF_ASC_NODE": 127.4423, "ARG_OF_PERICENTER": 202.1384, "MEAN_ANOMALY": 188.077, "EPHEMERIS_TYPE": 0, "CLASSIFICATION_TYPE": "U", "NORAD_CAT_ID": 34572, "ELEMENT_SET_NO": 999, "REV_AT_EPOCH": 87286, "BSTAR": 0.0052722217, "MEAN_MOTION_DOT": 0.00020902, "MEAN_MOTION_DDOT": 0}, "tle": {"line1": "1 34572U 93036VJ  25340.39375213  .00020902  00000+0  52722-2 0  9991", "line2": "2 34572  74.0114 127.4423 0063600 202.1384 188.0770 14.49801114872863"}}, "geometry": {"type": "Point", "coordinates": [102.52628716714334, -54.86174808667108]}}, {"type": "Feature", "properties": {"norad_id": 34574, "name": "COSMOS 2251 DEB", "group": "cosmos-2251-debris", "lat": 62.76174907971612, "lon": -159.17668085446851, "alt_km": 614.1867184179737, "timestamp": "2025-12-06T20:37:56.470152+00:00", "meta": {"OBJECT_NAME": "COSMOS 2251 DEB", "OBJECT_ID": "1993-036VL", "EPOCH": "2025-12-06T15:46:44.856768", "MEAN_MOTION": 14.7050465, "ECCENTRICITY": 0.00669684, "INCLINATION": 74.07, "RA_OF_ASC_NODE": 54.914, "ARG_OF_PERICENTER": 77.9509, "MEAN_ANOMALY": 43.8944, "EPHEMERIS_TYPE": 0, "CLASSIFICATION_TYPE": "U", "NORAD_CAT_ID": 34574, "ELEMENT_SET_NO": 999, "REV_AT_EPOCH": 88689, "BSTAR": 0.0016481789, "MEAN_MOTION_DOT": 0.00010336, "MEAN_MOTION_DDOT": 0}, "tle": {"line1": "1 34574U 93036VL  25340.65746362  .00010336  00000+0  16482-2 0  9992", "line2": "2 34574  74.0700  54.9140 0066968  77.9509  43.8944 14.70504650886891"}}, "geometry": {"type": "Point", "coordinates": [-159.17668085446851, 62.76174907971612]}}, {"type": "Feature", "properties": {"norad_id": 34576, "name": "COSMOS 2251 DEB", "group": "cosmos-2251-debris", "lat": 40.21243657721011, "lon": 163.34406546785434, "alt_km": 707.4525674855249, "timestamp": "2025-12-06T20:37:56.470162+00:00", "meta": {"OBJECT_NAME": "COSMOS 2251 DEB", "OBJECT_ID": "1993-036VN", "EPOCH": "2025-12-05T22:03:28.107648", "MEAN_MOTION": 14.55346539, "ECCENTRICITY": 0.00079495, "INCLINATION": 74.0327, "RA_OF_ASC_NODE": 151.1169, "ARG_OF_PERICENTER": 285.1521, "MEAN_ANOMALY": 230.9661, "EPHEMERIS_TYPE": 0, "CLASSIFICATION_TYPE": "U", "NORAD_CAT_ID": 34576, "ELEMENT_SET_NO": 999, "REV_AT_EPOCH": 88367, "BSTAR": 0.0014239475, "MEAN_MOTION_DOT": 6.158e-05, "MEAN_MOTION_DDOT": 0}, "tle": {"line1": "1 34576U 93036VN  25339.91907532  .00006158  00000+0  14239-2 0  9994", "line2": "2 34576  74.0327 151.1169 0007949 285.1521 230.9661 14.55346539883671"}}, "geometry": {"type": "Point", "coordinates": [163.34406546785434, 40.21243657721011]}}, {"type": "Feature", "properties": {"norad_id": 34579, "name": "COSMOS 2251 DEB", "group": "cosmos-2251-debris", "lat": 61.51454516424215, "lon": 23.04178991059886, "alt_km": 754.0603856270809, "timestamp": "2025-12-06T20:37:56.470173+00:00", "meta": {"OBJECT_NAME": "COSMOS 2251 DEB", "OBJECT_ID": "1993-036VR", "EPOCH": "2025-12-06T10:56:57.973920", "MEAN_MOTION": 14.45280696, "ECCENTRICITY": 0.0027569, "INCLINATION": 74.0535, "RA_OF_ASC_NODE": 235.5902, "ARG_OF_PERICENTER": 305.1742, "MEAN_ANOMALY": 230.3102, "EPHEMERIS_TYPE": 0, "CLASSIFICATION_TYPE": "U", "NORAD_CAT_ID": 34579, "ELEMENT_SET_NO": 999, "REV_AT_EPOCH": 88083, "BSTAR": 0.00090355139, "MEAN_MOTION_DOT": 3.16e-05, "MEAN_MOTION_DDOT": 0}, "tle": {"line1": "1 34579U 93036VR  25340.45622655  .00003160  00000+0  90355-3 0  9992", "line2": "2 34579  74.0535 235.5902 0027569 305.1742 230.3102 14.45280696880834"}}, "geometry": {"type": "Point", "coordinates": [23.04178991059886, 61.51454516424215]}}, {"type": "Feature", "properties": {"norad_id": 34582, "name": "COSMOS 2251 DEB", "group": "cosmos-2251-debris", "lat": 73.37036134931736, "lon": 29.695011038183992, "alt_km": 723.1733338143431, "timestamp": "2025-12-06T20:37:56.470183+00:00", "meta": {"OBJECT_NAME": "COSMOS 2251 DEB", "OBJECT_ID": "1993-036VU", "EPOCH": "2025-12-06T05:13:38.124768", "MEAN_MOTION": 14.43270837, "ECCENTRICITY": 0.00474965, "INCLINATION": 74.0203, "RA_OF_ASC_NODE": 284.5044, "ARG_OF_PERICENTER": 36.1527, "MEAN_ANOMALY": 324.2824, "EPHEMERIS_TYPE": 0, "CLASSIFICATION_TYPE": "U", "NORAD_CAT_ID": 34582, "ELEMENT_SET_NO": 999, "REV_AT_EPOCH": 87853, "BSTAR": 0.0013568983, "MEAN_MOTION_DOT": 4.608e-05, "MEAN_MOTION_DDOT": 0}, "tle": {"line1": "1 34582U 93036VU  25340.21780237  .00004608  00000+0  13569-2 0  9990", "line2": "2 34582  74.0203 284.5044 0047496  36.1527 324.2824 14.43270837878536"}}, "geometry": {"type": "Point", "coordinates": [29.695011038183992, 73.37036134931736]}}, {"type": "Feature", "properties": {"norad_id": 34588, "name": "COSMOS 2251 DEB", "group": "cosmos-2251-debris", "lat": 3.455374173533973, "lon": 98.16066735763965, "alt_km": 766.4693387322677, "timestamp": "2025-12-06T20:37:56.470194+00:00", "meta": {"OBJECT_NAME": "COSMOS 2251 DEB", "OBJECT_ID": "1993-036WA", "EPOCH": "2025-12-06T07:12:11.456640", "MEAN_MOTION": 14.41989689, "ECCENTRICITY": 0.00190217, "INCLINATION": 74.0441, "RA_OF_ASC_NODE": 280.1868, "ARG_OF_PERICENTER": 333.5249, "MEAN_ANOMALY": 179.3177, "EPHEMERIS_TYPE": 0, "CLASSIFICATION_TYPE": "U", "NORAD_CAT_ID": 34588, "ELEMENT_SET_NO": 999, "REV_AT_EPOCH": 87857, "BSTAR": 0.0010176707, "MEAN_MOTION_DOT": 3.32e-05, "MEAN_MOTION_DDOT": 0}, "tle": {"line1": "1 34588U 93036WA  25340.30013260  .00003320  00000+0  10177-2 0  9993", "line2": "2 34588  74.0441 280.1868 0019021 333.5249 179.3177 14.41989689878574"}}, "geometry": {"type": "Point", "coordinates": [98.16066735763965, 3.455374173533973]}}, {"type": "Feature", "properties": {"norad_id": 34589, "name": "COSMOS 2251 DEB", "group": "cosmos-2251-debris", "lat": 51.144237199529016, "lon": -134.92094821491756, "alt_km": 1012.1220912640092, "timestamp": "2025-12-06T20:37:56.470205+00:00", "meta": {"OBJECT_NAME": "COSMOS 2251 DEB", "OBJECT_ID": "1993-036WB", "EPOCH": "2025-12-05T12:58:27.050304", "MEAN_MOTION": 13.86044835, "ECCENTRICITY": 0.02516941, "INCLINATION": 73.9247, "RA_OF_ASC_NODE": 68.2981, "ARG_OF_PERICENTER": 13.0786, "MEAN_ANOMALY": 10.6469, "EPHEMERIS_TYPE": 0, "CLASSIFICATION_TYPE": "U", "NORAD_CAT_ID": 34589, "ELEMENT_SET_NO": 999, "REV_AT_EPOCH": 84612, "BSTAR": 0.00038916081, "MEAN_MOTION_DOT": 5.51e-06, "MEAN_MOTION_DDOT": 0}, "tle": {"line1": "1 34589U 93036WB  25339.54059086  .00000551  00000+0  38916-3 0  9999", "line2": "2 34589  73.9247  68.2981 0251694  13.0786  10.6469 13.86044835846128"}}, "geometry": {"type": "Point", "coordinates": [-134.92094821491756, 51.144237199529016]}}, {"type": "Feature", "properties": {"norad_id": 34590, "name": "COSMOS 2251 DEB", "group": "cosmos-2251-debris", "lat": 73.71893642853706, "lon": 75.26138664980999, "alt_km": 655.3615806360767, "timestamp": "2025-12-06T20:37:56.470215+00:00", "meta": {"OBJECT_NAME": "COSMOS 2251 DEB", "OBJECT_ID": "1993-036WC", "EPOCH": "2025-12-06T11:02:16.599840", "MEAN_MOTION": 14.5481507, "ECCENTRICITY": 0.00679858, "INCLINATION": 74.0436, "RA_OF_ASC_NODE": 334.4307, "ARG_OF_PERICENTER": 105.8526, "MEAN_ANOMALY": 54.6708, "EPHEMERIS_TYPE": 0, "CLASSIFICATION_TYPE": "U", "NORAD_CAT_ID": 34590, "ELEMENT_SET_NO": 999, "REV_AT_EPOCH": 89029, "BSTAR": 0.00023893979, "MEAN_MOTION_DOT": 1.028e-05, "MEAN_MOTION_DDOT": 0}, "tle": {"line1": "1 34590U 93036WC  25340.45991435  .00001028  00000+0  23894-3 0  9995", "line2": "2 34590  74.0436 334.4307 0067985 105.8526  54.6708 14.54815070890296"}}, "geometry": {"type": "Point", "coordinates": [75.26138664980999, 73.71893642853706]}}]}